NORAD_CAT_ID,OBJECT_NAME,OBJECT_TYPE,EPOCH,MEAN_MOTION,ECCENTRICITY,INCLINATION,RA_OF_ASC_NODE,ARG_OF_PERICENTER,MEAN_ANOMALY,BSTAR,MEAN_MOTION_DOT,MEAN_MOTION_DDOT,TLE_LINE0,TLE_LINE1,TLE_LINE2,SEMIMAJOR_AXIS,PERIOD,APOGEE,PERIGEE,DECAYED
52576.0,STARLINK-3932,PAYLOAD,2022-11-05 19:14:25,15.08813028,0.0002019,53.2165,195.402,37.4536,322.6596,-0.00033432,-5.601e-05,0.0,0 STARLINK-3932,1 52576U 22051AS  22309.80168474 -.00005601  00000-0 -33432-3 0  9991,2 52576  53.2165 195.4020 0002019  37.4536 322.6596 15.08813028 27424,6917.9630000000025,95.439,541.225,538.431,0.0
52576.0,STARLINK-3932,PAYLOAD,2022-11-06 11:08:17,15.08823494,0.0001921,53.2173,192.4284,41.4583,318.6555,2.6797000000000004e-06,-2.45e-06,0.0,0 STARLINK-3932,1 52576U 22051AS  22310.46409391 -.00000245  00000-0  26797-5 0  9997,2 52576  53.2173 192.4284 0001921  41.4583 318.6555 15.08823494 27596,6917.931,95.439,541.125,538.467,0.0
52576.0,STARLINK-3932,PAYLOAD,2022-11-07 10:59:05,15.0885474,0.0002207,53.2159,187.9682,39.9293,320.1861,0.00099398,0.00015573,0.0,0 STARLINK-3932,1 52576U 22051AS  22311.45769842  .00015573  00000-0  99398-3 0  9991,2 52576  53.2159 187.9682 0002207  39.9293 320.1861 15.08854740 27742,6917.835,95.437,541.227,538.174,0.0
52576.0,STARLINK-3932,PAYLOAD,2022-11-07 22:06:46,15.08848471,0.0001952,53.2166,185.8862,40.4853,319.6285,0.00051241,7.878e-05,0.0,0 STARLINK-3932,1 52576U 22051AS  22311.92137672  .00007878  00000-0  51241-3 0  9997,2 52576  53.2166 185.8862 0001952  40.4853 319.6285 15.08848471 27817,6917.854,95.437,541.07,538.369,0.0
52576.0,STARLINK-3932,PAYLOAD,2022-11-08 09:14:27,15.08871868,0.0002193,53.2158,183.8043,39.9799,320.1354,0.00069586,0.00010814,0.0,0 STARLINK-3932,1 52576U 22051AS  22312.38504361  .00010814  00000-0  69586-3 0  9996,2 52576  53.2158 183.8043 0002193  39.9799 320.1354 15.08871868 27884,6917.783,95.436,541.165,538.131,0.0
52576.0,STARLINK-3932,PAYLOAD,2022-11-08 18:46:45,15.08875284,0.0002226,53.2156,182.0202,41.2269,318.8891,0.00054344,8.379999999999999e-05,0.0,0 STARLINK-3932,1 52576U 22051AS  22312.78247632  .00008380  00000-0  54344-3 0  9996,2 52576  53.2156 182.0202 0002226  41.2269 318.8891 15.08875284 27870,6917.773,95.435,541.177,538.0980000000002,0.0
52576.0,STARLINK-3932,PAYLOAD,2022-11-09 13:51:22,15.08838635,0.0002058,53.2162,178.4527,35.8449,324.2681,-0.0011847,-0.00019093,0.0,0 STARLINK-3932,1 52576U 22051AS  22313.57734273 -.00019093  00000-0 -11847-2 0  9991,2 52576  53.2162 178.4527 0002058  35.8449 324.2681 15.08838635 27998,6917.885,95.438,541.173,538.326,0.0
52576.0,STARLINK-3932,PAYLOAD,2022-11-09 21:48:18,15.08837909,0.0002152,53.216,176.9651,36.5329,323.5809,-0.00058953,-9.658e-05,0.0,0 STARLINK-3932,1 52576U 22051AS  22313.90854644 -.00009658  00000-0 -58953-3 0  9999,2 52576  53.2160 176.9651 0002152  36.5329 323.5809 15.08837909 28119,6917.887,95.438,541.241,538.263,0.0
52576.0,STARLINK-3932,PAYLOAD,2022-11-10 20:03:42,15.08833029,0.0001871,53.2164,172.7994,43.6183,316.4957,8.9172e-05,1.131e-05,0.0,0 STARLINK-3932,1 52576U 22051AS  22314.83591423  .00001131  00000-0  89172-4 0  9999,2 52576  53.2164 172.7994 0001871  43.6183 316.4957 15.08833029 28182,6917.901999999999,95.438,541.061,538.472,0.0
52576.0,STARLINK-3932,PAYLOAD,2022-11-11 07:11:26,15.0881613,0.0002156,53.2164,170.7191,35.6157,324.4978,7.4624e-05,8.99e-06,0.0,0 STARLINK-3932,1 52576U 22051AS  22315.29960664  .00000899  00000-0  74624-4 0  9993,2 52576  53.2164 170.7191 0002156  35.6157 324.4978 15.08816130 28320,6917.953,95.439,541.31,538.327,0.0
52576.0,STARLINK-3932,PAYLOAD,2022-11-11 21:29:54,15.08827809,0.0002163,53.216,168.0436,39.1186,320.9962,0.0002179,3.18e-05,0.0,0 STARLINK-3932,1 52576U 22051AS  22315.89576965  .00003180  00000-0  21790-3 0  9997,2 52576  53.2160 168.0436 0002163  39.1186 320.9962 15.08827809 28416,6917.918000000002,95.438,541.279,538.286,0.0
52576.0,STARLINK-3932,PAYLOAD,2022-11-12 11:48:22,15.08837516,0.0002124,53.2155,165.3674,39.7264,320.3884,0.00043894,6.704e-05,0.0,0 STARLINK-3932,1 52576U 22051AS  22316.49192973  .00006704  00000-0  43894-3 0  9991,2 52576  53.2155 165.3674 0002124  39.7264 320.3884 15.08837516 28439,6917.888000000001,95.438,541.222,538.284,0.0
52576.0,STARLINK-3932,PAYLOAD,2022-11-12 18:09:55,15.088448499999998,0.0002129,53.2154,164.178,40.0703,320.0446,0.00051521,7.922e-05,0.0,0 STARLINK-3932,1 52576U 22051AS  22316.75688890  .00007922  00000-0  51521-3 0  9997,2 52576  53.2154 164.1780 0002129  40.0703 320.0446 15.08844850 28543,6917.866,95.437,541.203,538.258,0.0
52576.0,STARLINK-3932,PAYLOAD,2022-11-12 21:20:41,15.08847394,0.0002129,53.2153,163.5833,40.3156,319.7994,0.00048325,7.413e-05,0.0,0 STARLINK-3932,1 52576U 22051AS  22316.88936794  .00007413  00000-0  48325-3 0  9993,2 52576  53.2153 163.5833 0002129  40.3156 319.7994 15.08847394 28492,6917.858,95.437,541.196,538.25,0.0
52576.0,STARLINK-3932,PAYLOAD,2022-11-13 10:03:46,15.08840777,0.0002116,53.2151,161.2045,40.2261,319.8887,0.00012437,1.692e-05,0.0,0 STARLINK-3932,1 52576U 22051AS  22317.41928929  .00001692  00000-0  12437-3 0  9992,2 52576  53.2151 161.2045 0002116  40.2261 319.8887 15.08840777 28649,6917.878000000002,95.438,541.207,538.279,0.0
52576.0,STARLINK-3932,PAYLOAD,2022-11-13 18:00:42,15.08840455,0.0002162,53.2151,159.7177,40.1579,319.9573,0.00010685,1.413e-05,0.0,0 STARLINK-3932,1 52576U 22051AS  22317.75048990  .00001413  00000-0  10685-3 0  9994,2 52576  53.2151 159.7177 0002162  40.1579 319.9573 15.08840455 28623,6917.879,95.438,541.24,538.248,0.0
52576.0,STARLINK-3932,PAYLOAD,2022-11-14 06:43:47,15.088427800000002,0.0002171,53.2151,157.3388,40.3299,319.7854,0.00023618,3.473e-05,0.0,0 STARLINK-3932,1 52576U 22051AS  22318.28040989  .00003473  00000-0  23618-3 0  9991,2 52576  53.2151 157.3388 0002171  40.3299 319.7854 15.08842780 28704,6917.871999999999,95.437,541.239,538.235,0.0
52576.0,STARLINK-3932,PAYLOAD,2022-11-14 17:51:29,15.08845936,0.0002239,53.2151,155.2575,40.5245,319.5914,0.00033189,4.999e-05,0.0,0 STARLINK-3932,1 52576U 22051AS  22318.74408923  .00004999  00000-0  33189-3 0  9996,2 52576  53.2151 155.2575 0002239  40.5245 319.5914 15.08845936 28775,6917.861999999999,95.437,541.276,538.178,0.0
52576.0,STARLINK-3932,PAYLOAD,2022-11-14 22:37:38,15.08848301,0.000226,53.2153,154.3653,41.6488,318.4676,0.00029365,4.389e-05,0.0,0 STARLINK-3932,1 52576U 22051AS  22318.94280786  .00004389  00000-0  29365-3 0  9997,2 52576  53.2153 154.3653 0002260  41.6488 318.4676 15.08848301 28872,6917.855,95.437,541.283,538.1569999999998,0.0
52576.0,STARLINK-3932,PAYLOAD,2022-11-15 12:56:06,15.08845935,0.0002303,53.2152,151.6888,42.2828,317.8341,0.00020921,3.043e-05,0.0,0 STARLINK-3932,1 52576U 22051AS  22319.53896785  .00003043  00000-0  20921-3 0  9990,2 52576  53.2152 151.6888 0002303  42.2828 317.8341 15.08845935 28898,6917.861999999999,95.437,541.32,538.134,0.0
52576.0,STARLINK-3932,PAYLOAD,2022-11-15 19:17:39,15.08840194,0.0002266,53.2156,150.4989,42.3963,317.7203,8.5741e-05,1.077e-05,0.0,0 STARLINK-3932,1 52576U 22051AS  22319.80393004  .00001077  00000-0  85741-4 0  9993,2 52576  53.2156 150.4989 0002266  42.3963 317.7203 15.08840194 29002,6917.88,95.438,541.312,538.177,0.0
52576.0,STARLINK-3932,PAYLOAD,2022-11-16 12:46:53,15.08842368,0.0002266,53.2158,147.2279,43.0009,317.116,6.7652e-05,7.89e-06,0.0,0 STARLINK-3932,1 52576U 22051AS  22320.53256911  .00000789  00000-0  67652-4 0  9990,2 52576  53.2158 147.2279 0002266  43.0009 317.1160 15.08842368 29044,6917.873000000001,95.437,541.306,538.1709999999998,0.0
52576.0,STARLINK-3932,PAYLOAD,2022-11-16 19:08:26,15.08844568,0.000225,53.2166,146.03799999999995,43.9662,316.1509,6.7941e-05,7.93e-06,0.0,0 STARLINK-3932,1 52576U 22051AS  22320.79752741  .00000793  00000-0  67941-4 0  9996,2 52576  53.2166 146.0380 0002250  43.9662 316.1509 15.08844568 29084,6917.866,95.437,541.288,538.175,0.0
52576.0,STARLINK-3932,PAYLOAD,2022-11-17 09:26:54,15.08846788,0.0002278,53.2167,143.3623,42.8623,317.2546,8.7682e-05,1.108e-05,0.0,0 STARLINK-3932,1 52576U 22051AS  22321.39368384  .00001108  00000-0  87682-4 0  9994,2 52576  53.2167 143.3623 0002278  42.8623 317.2546 15.08846788 29247,6917.86,95.437,541.3009999999998,538.149,0.0
52576.0,STARLINK-3932,PAYLOAD,2022-11-17 12:37:41,15.08832841,0.0002468,53.2166,142.7678,38.6421,321.4747,6.1558e-05,6.91e-06,0.0,0 STARLINK-3932,1 52576U 22051AS  22321.52617329  .00000691  00000-0  61558-4 0  9995,2 52576  53.2166 142.7678 0002468  38.6421 321.4747 15.08832841 29198,6917.901999999999,95.438,541.475,538.06,0.0
52576.0,STARLINK-3932,PAYLOAD,2022-11-17 14:13:04,15.08831903,0.0002481,53.2166,142.4707,39.2344,320.8827,5.1666e-05,5.34e-06,0.0,0 STARLINK-3932,1 52576U 22051AS  22321.59241388  .00000534  00000-0  51666-4 0  9995,2 52576  53.2166 142.4707 0002481  39.2344 320.8827 15.08831903 29273,6917.905,95.438,541.486,538.054,0.0
52576.0,STARLINK-3932,PAYLOAD,2022-11-18 12:28:28,15.08835188,0.000227,53.2167,138.3072,43.9262,316.191,3.7317e-05,3.06e-06,0.0,0 STARLINK-3932,1 52576U 22051AS  22322.51977680  .00000306  00000-0  37317-4 0  9993,2 52576  53.2167 138.3072 0002270  43.9262 316.1910 15.08835188 29348,6917.895,95.438,541.33,538.19,0.0
52576.0,STARLINK-3932,PAYLOAD,2022-11-18 18:50:01,15.08836962,0.0002257,53.2166,137.1172,45.3013,314.8163,4.3262e-05,4e-06,0.0,0 STARLINK-3932,1 52576U 22051AS  22322.78473573  .00000400  00000-0  43262-4 0  9995,2 52576  53.2166 137.1172 0002257  45.3013 314.8163 15.08836962 29458,6917.89,95.438,541.316,538.193,0.0
52576.0,STARLINK-3932,PAYLOAD,2022-11-19 07:33:06,15.08841085,0.0002289,53.2168,134.7384,45.4849,314.633,6.2395e-05,7.05e-06,0.0,0 STARLINK-3932,1 52576U 22051AS  22323.31465500  .00000705  00000-0  62395-4 0  9992,2 52576  53.2168 134.7384 0002289  45.4849 314.6330 15.08841085 29468,6917.877,95.437,541.326,538.159,0.0
